STARLINK-3817           
1 52367U 22045AN  26068.64936795 -.00000027  00000+0  16355-4 0  9990
2 52367  53.2189 189.3052 0000969  76.7638 283.3462 15.08831384215919
RAISE-4                 
1 67073U 25297B   26068.97636248  .00005682  00000+0  37087-3 0  9993
2 67073  97.4953 219.2703 0012713  22.7159 337.4629 15.08174958 12933
